{
  "norad_id": 62934,
  "name": "KINEIS-2B",
  "history": [
    {
      "epoch": "2026-04-10T03:44:55.641120Z",
      "apogee_km": 653.4989892389649,
      "perigee_km": 648.1247954948394,
      "latitude_deg": -3.410196310414912e-05,
      "longitude_deg": -100.3852208131117,
      "height_km": 651.5741544521258,
      "semi_major_axis_km": 7028.948892366902,
      "eccentricity": 0.00038229,
      "inclination_deg": 97.9731,
      "raan_deg": 154.2407,
      "arg_perigee_deg": 33.3776,
      "mean_anomaly_deg": 326.7672,
      "mean_motion_rev_day": 14.73218567
    },
    {
      "epoch": "2026-04-11T20:30:01.813824Z",
      "apogee_km": 653.3863319955462,
      "perigee_km": 648.2214662228807,
      "latitude_deg": -1.189294171380044e-05,
      "longitude_deg": 8.33353969967846,
      "height_km": 651.5508551356263,
      "semi_major_axis_km": 7028.940899109213,
      "eccentricity": 0.0003674,
      "inclination_deg": 97.9729,
      "raan_deg": 155.9088,
      "arg_perigee_deg": 28.9484,
      "mean_anomaly_deg": 331.1927,
      "mean_motion_rev_day": 14.7322108
    },
    {
      "epoch": "2026-04-12T20:57:05.389920Z",
      "apogee_km": 653.3264629457717,
      "perigee_km": 648.2712522769789,
      "latitude_deg": -7.977150841638277e-05,
      "longitude_deg": 1.565281467076486,
      "height_km": 651.5395832257366,
      "semi_major_axis_km": 7028.9358576113755,
      "eccentricity": 0.0003596,
      "inclination_deg": 97.9728,
      "raan_deg": 156.9096,
      "arg_perigee_deg": 26.2809,
      "mean_anomaly_deg": 333.858,
      "mean_motion_rev_day": 14.73222665
    },
    {
      "epoch": "2026-04-14T15:19:59.371968Z",
      "apogee_km": 653.2177368170587,
      "perigee_km": 648.3635593832814,
      "latitude_deg": 1.1021992302548334e-05,
      "longitude_deg": 85.83459211075017,
      "height_km": 651.5364982629525,
      "semi_major_axis_km": 7028.92764810017,
      "eccentricity": 0.0003453,
      "inclination_deg": 97.9726,
      "raan_deg": 158.6444,
      "arg_perigee_deg": 21.2686,
      "mean_anomaly_deg": 338.8665,
      "mean_motion_rev_day": 14.73225246
    },
    {
      "epoch": "2026-04-15T17:24:50.918976Z",
      "apogee_km": 653.1446912339816,
      "perigee_km": 648.4268782608588,
      "latitude_deg": 6.310696137302087e-05,
      "longitude_deg": 54.61619964782314,
      "height_km": 651.5506302676263,
      "semi_major_axis_km": 7028.922784747419,
      "eccentricity": 0.0003356,
      "inclination_deg": 97.9725,
      "raan_deg": 159.7119,
      "arg_perigee_deg": 18.0248,
      "mean_anomaly_deg": 342.1079,
      "mean_motion_rev_day": 14.73226775
    },
    {
      "epoch": "2026-04-16T14:36:17.759232Z",
      "apogee_km": 653.0934223907489,
      "perigee_km": 648.4669890859313,
      "latitude_deg": -1.9915779844996917e-06,
      "longitude_deg": 96.75140123686502,
      "height_km": 651.5574668224762,
      "semi_major_axis_km": 7028.917205738339,
      "eccentricity": 0.0003291,
      "inclination_deg": 97.9723,
      "raan_deg": 160.5792,
      "arg_perigee_deg": 15.3202,
      "mean_anomaly_deg": 344.8105,
      "mean_motion_rev_day": 14.73228529
    },
    {
      "epoch": "2026-04-17T19:56:45.570336Z",
      "apogee_km": 653.0109898259097,
      "perigee_km": 648.5368068826729,
      "latitude_deg": 4.604018089703463e-06,
      "longitude_deg": 16.631427959429793,
      "height_km": 651.5901902017525,
      "semi_major_axis_km": 7028.910898354291,
      "eccentricity": 0.00031827,
      "inclination_deg": 97.9721,
      "raan_deg": 161.7801,
      "arg_perigee_deg": 11.4751,
      "mean_anomaly_deg": 348.6529,
      "mean_motion_rev_day": 14.73230512
    },
    {
      "epoch": "2026-04-18T08:59:11.234976Z",
      "apogee_km": 652.9763214525465,
      "perigee_km": 648.5668059541922,
      "latitude_deg": -1.5468763882223142e-06,
      "longitude_deg": -178.97735975217236,
      "height_km": 651.607212260906,
      "semi_major_axis_km": 7028.9085637033695,
      "eccentricity": 0.00031367,
      "inclination_deg": 97.9721,
      "raan_deg": 162.3138,
      "arg_perigee_deg": 9.7078,
      "mean_anomaly_deg": 350.419,
      "mean_motion_rev_day": 14.73231246
    },
    {
      "epoch": "2026-04-19T17:35:15.150336Z",
      "apogee_km": 652.8865846234576,
      "perigee_km": 648.639723150478,
      "latitude_deg": -4.109902823409777e-05,
      "longitude_deg": 52.00175173722505,
      "height_km": 651.6586194937521,
      "semi_major_axis_km": 7028.900153886967,
      "eccentricity": 0.0003021,
      "inclination_deg": 97.9718,
      "raan_deg": 163.6481,
      "arg_perigee_deg": 5.4673,
      "mean_anomaly_deg": 354.6567,
      "mean_motion_rev_day": 14.7323389
    },
    {
      "epoch": "2026-04-20T09:53:17.119680Z",
      "apogee_km": 652.8458153577358,
      "perigee_km": 648.6766946467642,
      "latitude_deg": -5.935747194002261e-05,
      "longitude_deg": 167.49130775374883,
      "height_km": 651.6894371612291,
      "semi_major_axis_km": 7028.89825500225,
      "eccentricity": 0.00029657,
      "inclination_deg": 97.9718,
      "raan_deg": 164.3153,
      "arg_perigee_deg": 3.2311,
      "mean_anomaly_deg": 356.8915,
      "mean_motion_rev_day": 14.73234487
    },
    {
      "epoch": "2026-04-21T10:20:19.838688Z",
      "apogee_km": 652.7822612906048,
      "perigee_km": 648.7234991181795,
      "latitude_deg": -8.111858486288579e-05,
      "longitude_deg": 160.72642231794396,
      "height_km": 651.7332467291316,
      "semi_major_axis_km": 7028.889880204392,
      "eccentricity": 0.00028872,
      "inclination_deg": 97.9716,
      "raan_deg": 165.3159,
      "arg_perigee_deg": 359.7149,
      "mean_anomaly_deg": 0.4056,
      "mean_motion_rev_day": 14.7323712
    },
    {
      "epoch": "2026-04-22T17:18:35.180928Z",
      "apogee_km": 652.6982618348666,
      "perigee_km": 648.7958254138466,
      "latitude_deg": 2.1411107818997127e-05,
      "longitude_deg": 56.158047961670434,
      "height_km": 651.8127704075649,
      "semi_major_axis_km": 7028.884043624356,
      "eccentricity": 0.0002776,
      "inclination_deg": 97.9713,
      "raan_deg": 166.5834,
      "arg_perigee_deg": 355.1848,
      "mean_anomaly_deg": 4.9333,
      "mean_motion_rev_day": 14.73238955
    }
  ]
}